{"type": "FeatureCollection", "features": [ {"type": "Feature", "properties": {"norad_id": 34400, "name": "COSMOS 2251 DEB", "group": "cosmos-2251-debris", "lat": -62.643256447045566, "lon": -141.08487099564502, "alt_km": 401.0967437981126, "timestamp": "2025-12-20T22:39:11.019202+00:00", "meta": {"OBJECT_NAME": "COSMOS 2251 DEB", "OBJECT_ID": "1993-036QR", "EPOCH": "2025-12-20T10:47:50.834688", "MEAN_MOTION": 15.56772051, "ECCENTRICITY": 0.00032397, "INCLINATION": 73.9626, "RA_OF_ASC_NODE": 6.2364, "ARG_OF_PERICENTER": 243.0216, "MEAN_ANOMALY": 117.067, "EPHEMERIS_TYPE": 0, "CLASSIFICATION_TYPE": "U", "NORAD_CAT_ID": 34400, "ELEMENT_SET_NO": 999, "REV_AT_EPOCH": 90094, "BSTAR": 0.0025923117, "MEAN_MOTION_DOT": 0.00190148, "MEAN_MOTION_DDOT": 0}, "tle": {"line1": "1 34400U 93036QR  25354.44989392  .00190148  00000+0  25923-2 0  9994", "line2": "2 34400  73.9626   6.2364 0003239 243.0216 117.0670 15.56772051900945"}}, "geometry": {"type": "Point", "coordinates": [-141.08487099564502, -62.643256447045566]}}, {"type": "Feature", "properties": {"norad_id": 34409, "name": "COSMOS 2251 DEB", "group": "cosmos-2251-debris", "lat": 14.492648166693293, "lon": 107.02059054076157, "alt_km": 753.8147057486985, "timestamp": "2025-12-20T22:39:11.019211+00:00", "meta": {"OBJECT_NAME": "COSMOS 2251 DEB", "OBJECT_ID": "1993-036RA", "EPOCH": "2025-12-20T06:01:18.579072", "MEAN_MOTION": 14.58044298, "ECCENTRICITY": 0.0080201, "INCLINATION": 74.0635, "RA_OF_ASC_NODE": 292.5717, "ARG_OF_PERICENTER": 4.9327, "MEAN_ANOMALY": 123.7099, "EPHEMERIS_TYPE": 0, "CLASSIFICATION_TYPE": "U", "NORAD_CAT_ID": 34409, "ELEMENT_SET_NO": 999, "REV_AT_EPOCH": 89302, "BSTAR": 0.00018555, "MEAN_MOTION_DOT": 8.6e-06, "MEAN_MOTION_DDOT": 0}, "tle": {"line1": "1 34409U 93036RA  25354.25090948  .00000860  00000+0  18555-3 0  9997", "line2": "2 34409  74.0635 292.5717 0080201   4.9327 123.7099 14.58044298893024"}}, "geometry": {"type": "Point", "coordinates": [107.02059054076157, 14.492648166693293]}}, {"type": "Feature", "properties": {"norad_id": 34410, "name": "COSMOS 2251 DEB", "group": "cosmos-2251-debris", "lat": -30.46362915882608, "lon": 74.13629002793441, "alt_km": 521.6542770318301, "timestamp": "2025-12-20T22:39:11.019237+00:00", "meta": {"OBJECT_NAME": "COSMOS 2251 DEB", "OBJECT_ID": "1993-036RB", "EPOCH": "2025-12-20T03:26:51.790272", "MEAN_MOTION": 15.19578498, "ECCENTRICITY": 0.00215962, "INCLINATION": 73.7374, "RA_OF_ASC_NODE": 245.9556, "ARG_OF_PERICENTER": 86.1624, "MEAN_ANOMALY": 69.5955, "EPHEMERIS_TYPE": 0, "CLASSIFICATION_TYPE": "U", "NORAD_CAT_ID": 34410, "ELEMENT_SET_NO": 999, "REV_AT_EPOCH": 89886, "BSTAR": 0.0014542699, "MEAN_MOTION_DOT": 0.00031235, "MEAN_MOTION_DDOT": 0}, "tle": {"line1": "1 34410U 93036RB  25354.14365498  .00031235  00000+0  14543-2 0  9994", "line2": "2 34410  73.7374 245.9556 0021596  86.1624  69.5955 15.19578498898866"}}, "geometry": {"type": "Point", "coordinates": [74.13629002793441, -30.46362915882608]}}, {"type": "Feature", "properties": {"norad_id": 34412, "name": "COSMOS 2251 DEB", "group": "cosmos-2251-debris", "lat": 51.434947809135444, "lon": -29.652117936185277, "alt_km": 599.1424200925694, "timestamp": "2025-12-20T22:39:11.019260+00:00", "meta": {"OBJECT_NAME": "COSMOS 2251 DEB", "OBJECT_ID": "1993-036RD", "EPOCH": "2025-12-20T04:09:43.065504", "MEAN_MOTION": 14.47216204, "ECCENTRICITY": 0.01874651, "INCLINATION": 73.9488, "RA_OF_ASC_NODE": 310.6286, "ARG_OF_PERICENTER": 43.9727, "MEAN_ANOMALY": 317.6172, "EPHEMERIS_TYPE": 0, "CLASSIFICATION_TYPE": "U", "NORAD_CAT_ID": 34412, "ELEMENT_SET_NO": 999, "REV_AT_EPOCH": 87758, "BSTAR": 0.0010437522, "MEAN_MOTION_DOT": 4.727e-05, "MEAN_MOTION_DDOT": 0}, "tle": {"line1": "1 34412U 93036RD  25354.17341511  .00004727  00000+0  10438-2 0  9994", "line2": "2 34412  73.9488 310.6286 0187465  43.9727 317.6172 14.47216204877587"}}, "geometry": {"type": "Point", "coordinates": [-29.652117936185277, 51.434947809135444]}}, {"type": "Feature", "properties": {"norad_id": 34413, "name": "COSMOS 2251 DEB", "group": "cosmos-2251-debris", "lat": 13.27169848414215, "lon": -106.14908503549378, "alt_km": 752.1924482877166, "timestamp": "2025-12-20T22:39:11.019270+00:00", "meta": {"OBJECT_NAME": "COSMOS 2251 DEB", "OBJECT_ID": "1993-036RE", "EPOCH": "2025-12-19T03:37:01.824384", "MEAN_MOTION": 14.29145308, "ECCENTRICITY": 0.00909812, "INCLINATION": 74.0307, "RA_OF_ASC_NODE": 253.2338, "ARG_OF_PERICENTER": 328.5293, "MEAN_ANOMALY": 182.5817, "EPHEMERIS_TYPE": 0, "CLASSIFICATION_TYPE": "U", "NORAD_CAT_ID": 34413, "ELEMENT_SET_NO": 999, "REV_AT_EPOCH": 87222, "BSTAR": 0.0011272931, "MEAN_MOTION_DOT": 2.965e-05, "MEAN_MOTION_DDOT": 0}, "tle": {"line1": "1 34413U 93036RE  25353.15071556  .00002965  00000+0  11273-2 0  9991", "line2": "2 34413  74.0307 253.2338 0090981 328.5293 182.5817 14.29145308872223"}}, "geometry": {"type": "Point", "coordinates": [-106.14908503549378, 13.27169848414215]}}, {"type": "Feature", "properties": {"norad_id": 34420, "name": "COSMOS 2251 DEB", "group": "cosmos-2251-debris", "lat": -1.6450245588932568, "lon": -91.43835584547566, "alt_km": 601.6583766353397, "timestamp": "2025-12-20T22:39:11.019279+00:00", "meta": {"OBJECT_NAME": "COSMOS 2251 DEB", "OBJECT_ID": "1993-036RM", "EPOCH": "2025-12-20T10:57:03.151008", "MEAN_MOTION": 14.68318652, "ECCENTRICITY": 0.01063007, "INCLINATION": 74.0334, "RA_OF_ASC_NODE": 89.0333, "ARG_OF_PERICENTER": 208.3486, "MEAN_ANOMALY": 277.4553, "EPHEMERIS_TYPE": 0, "CLASSIFICATION_TYPE": "U", "NORAD_CAT_ID": 34420, "ELEMENT_SET_NO": 999, "REV_AT_EPOCH": 89883, "BSTAR": 0.00016678422, "MEAN_MOTION_DOT": 1.013e-05, "MEAN_MOTION_DDOT": 0}, "tle": {"line1": "1 34420U 93036RM  25354.45628647  .00001013  00000+0  16678-3 0  9990", "line2": "2 34420  74.0334  89.0333 0106300 208.3486 277.4553 14.68318652898836"}}, "geometry": {"type": "Point", "coordinates": [-91.43835584547566, -1.6450245588932568]}}, {"type": "Feature", "properties": {"norad_id": 34425, "name": "COSMOS 2251 DEB", "group": "cosmos-2251-debris", "lat": 73.82742677036973, "lon": 119.95906360330466, "alt_km": 674.42089014668, "timestamp": "2025-12-20T22:39:11.019289+00:00", "meta": {"OBJECT_NAME": "COSMOS 2251 DEB", "OBJECT_ID": "1993-036RS", "EPOCH": "2025-12-20T12:24:03.268800", "MEAN_MOTION": 14.62166616, "ECCENTRICITY": 0.00243586, "INCLINATION": 74.0194, "RA_OF_ASC_NODE": 39.6101, "ARG_OF_PERICENTER": 163.9813, "MEAN_ANOMALY": 196.2129, "EPHEMERIS_TYPE": 0, "CLASSIFICATION_TYPE": "U", "NORAD_CAT_ID": 34425, "ELEMENT_SET_NO": 999, "REV_AT_EPOCH": 88854, "BSTAR": 0.00032863358, "MEAN_MOTION_DOT": 1.63e-05, "MEAN_MOTION_DDOT": 0}, "tle": {"line1": "1 34425U 93036RS  25354.51670450  .00001630  00000+0  32863-3 0  9990", "line2": "2 34425  74.0194  39.6101 0024358 163.9813 196.2129 14.62166616888540"}}, "geometry": {"type": "Point", "coordinates": [119.95906360330466, 73.82742677036973]}}, {"type": "Feature", "properties": {"norad_id": 34429, "name": "COSMOS 2251 DEB", "group": "cosmos-2251-debris", "lat": 17.48366015302738, "lon": 155.32061511180174, "alt_km": 425.78016438110444, "timestamp": "2025-12-20T22:39:11.019298+00:00", "meta": {"OBJECT_NAME": "COSMOS 2251 DEB", "OBJECT_ID": "1993-036RW", "EPOCH": "2025-12-19T12:37:59.714112", "MEAN_MOTION": 15.44301435, "ECCENTRICITY": 0.0010491, "INCLINATION": 73.9675, "RA_OF_ASC_NODE": 153.2196, "ARG_OF_PERICENTER": 352.9418, "MEAN_ANOMALY": 66.8806, "EPHEMERIS_TYPE": 0, "CLASSIFICATION_TYPE": "U", "NORAD_CAT_ID": 34429, "ELEMENT_SET_NO": 999, "REV_AT_EPOCH": 89553, "BSTAR": 0.0041473, "MEAN_MOTION_DOT": 0.00196298, "MEAN_MOTION_DDOT": 0}, "tle": {"line1": "1 34429U 93036RW  25353.52638558  .00196298  00000+0  41473-2 0  9998", "line2": "2 34429  73.9675 153.2196 0010491 352.9418  66.8806 15.44301435895539"}}, "geometry": {"type": "Point", "coordinates": [155.32061511180174, 17.48366015302738]}}, {"type": "Feature", "properties": {"norad_id": 34430, "name": "COSMOS 2251 DEB", "group": "cosmos-2251-debris", "lat": -68.5789077276067, "lon": -118.56716791065288, "alt_km": 752.5084940751094, "timestamp": "2025-12-20T22:39:11.019308+00:00", "meta": {"OBJECT_NAME": "COSMOS 2251 DEB", "OBJECT_ID": "1993-036RX", "EPOCH": "2025-12-20T12:59:37.042080", "MEAN_MOTION": 14.39653943, "ECCENTRICITY": 0.00607209, "INCLINATION": 74.0518, "RA_OF_ASC_NODE": 288.9673, "ARG_OF_PERICENTER": 356.7782, "MEAN_ANOMALY": 3.2972, "EPHEMERIS_TYPE": 0, "CLASSIFICATION_TYPE": "U", "NORAD_CAT_ID": 34430, "ELEMENT_SET_NO": 999, "REV_AT_EPOCH": 88067, "BSTAR": 0.00032461901, "MEAN_MOTION_DOT": 1.011e-05, "MEAN_MOTION_DDOT": 0}, "tle": {"line1": "1 34430U 93036RX  25354.54140095  .00001011  00000+0  32462-3 0  9994", "line2": "2 34430  74.0518 288.9673 0060720 356.7782   3.2972 14.39653943880676"}}, "geometry": {"type": "Point", "coordinates": [-118.56716791065288, -68.5789077276067]}}, {"type": "Feature", "properties": {"norad_id": 34431, "name": "COSMOS 2251 DEB", "group": "cosmos-2251-debris", "lat": -45.08574456461531, "lon": -3.0088506871729837, "alt_km": 796.2486484679039, "timestamp": "2025-12-20T22:39:11.019317+00:00", "meta": {"OBJECT_NAME": "COSMOS 2251 DEB", "OBJECT_ID": "1993-036RY", "EPOCH": "2025-12-20T13:11:45.896928", "MEAN_MOTION": 14.28798339, "ECCENTRICITY": 0.0067992, "INCLINATION": 74.0738, "RA_OF_ASC_NODE": 161.0622, "ARG_OF_PERICENTER": 144.678, "MEAN_ANOMALY": 215.8903, "EPHEMERIS_TYPE": 0, "CLASSIFICATION_TYPE": "U", "NORAD_CAT_ID": 34431, "ELEMENT_SET_NO": 999, "REV_AT_EPOCH": 87254, "BSTAR": 0.00048501631, "MEAN_MOTION_DOT": 1.228e-05, "MEAN_MOTION_DDOT": 0}, "tle": {"line1": "1 34431U 93036RY  25354.54983677  .00001228  00000+0  48502-3 0  9998", "line2": "2 34431  74.0738 161.0622 0067992 144.6780 215.8903 14.28798339872545"}}, "geometry": {"type": "Point", "coordinates": [-3.0088506871729837, -45.08574456461531]}}]}